{
  "type": "FeatureCollection",
  "features": [
    {
      "type": "Feature",
      "properties": {
        "norad_id": 35789,
        "name": "COSMOS 2251 DEB",
        "group": "cosmos-2251-debris",
        "lat": -42.319000110629716,
        "lon": 124.89185356628317,
        "alt_km": 810.7495086298477,
        "timestamp": "2025-12-09T18:55:17.628403+00:00",
        "meta_object_name": "COSMOS 2251 DEB",
        "meta_object_id": "1993-036ASK",
        "meta_epoch": "2025-12-09T14:32:12.086016",
        "meta_mean_motion": 14.35981929,
        "meta_eccentricity": 0.00472067,
        "meta_inclination": 74.039,
        "meta_ra_of_asc_node": 290.122,
        "meta_arg_of_pericenter": 30.3577,
        "meta_mean_anomaly": 330.0294,
        "meta_ephemeris_type": 0,
        "meta_classification_type": "U",
        "meta_norad_cat_id": 35789,
        "meta_element_set_no": 999,
        "meta_rev_at_epoch": 61182,
        "meta_bstar": 0.00024969926,
        "meta_mean_motion_dot": 7.08e-06,
        "meta_mean_motion_ddot": 0,
        "tle_line1": "1 35789U 93036ASK 25343.60569544  .00000708  00000+0  24970-3 0  9998",
        "tle_line2": "2 35789  74.0390 290.1220 0047206  30.3577 330.0294 14.35981929611827"
      },
      "geometry": {
        "type": "Point",
        "coordinates": [
          124.89185356628317,
          -42.319000110629716
        ]
      }
    },
    {
      "type": "Feature",
      "properties": {
        "norad_id": 35793,
        "name": "COSMOS 2251 DEB",
        "group": "cosmos-2251-debris",
        "lat": -4.479683948829589,
        "lon": -112.73050871601014,
        "alt_km": 635.7917564248919,
        "timestamp": "2025-12-09T18:55:17.628412+00:00",
        "meta_object_name": "COSMOS 2251 DEB",
        "meta_object_id": "1993-036ASP",
        "meta_epoch": "2025-12-07T22:47:04.053408",
        "meta_mean_motion": 14.78488646,
        "meta_eccentricity": 0.00029281,
        "meta_inclination": 74.0407,
        "meta_ra_of_asc_node": 69.5961,
        "meta_arg_of_pericenter": 139.1114,
        "meta_mean_anomaly": 340.8609,
        "meta_ephemeris_type": 0,
        "meta_classification_type": "U",
        "meta_norad_cat_id": 35793,
        "meta_element_set_no": 999,
        "meta_rev_at_epoch": 65726,
        "meta_bstar": 0.0023244582,
        "meta_mean_motion_dot": 0.0001698,
        "meta_mean_motion_ddot": 0,
        "tle_line1": "1 35793U 93036ASP 25341.94935247  .00016980  00000+0  23245-2 0  9997",
        "tle_line2": "2 35793  74.0407  69.5961 0002928 139.1114 340.8609 14.78488646657260"
      },
      "geometry": {
        "type": "Point",
        "coordinates": [
          -112.73050871601014,
          -4.479683948829589
        ]
      }
    },
    {
      "type": "Feature",
      "properties": {
        "norad_id": 35824,
        "name": "COSMOS 2251 DEB",
        "group": "cosmos-2251-debris",
        "lat": 70.93870182814737,
        "lon": 110.8819851073832,
        "alt_km": 834.4753714730869,
        "timestamp": "2025-12-09T18:55:17.628422+00:00",
        "meta_object_name": "COSMOS 2251 DEB",
        "meta_object_id": "1993-036ASW",
        "meta_epoch": "2025-12-08T11:24:31.157568",
        "meta_mean_motion": 13.883958,
        "meta_eccentricity": 0.02494458,
        "meta_inclination": 73.8458,
        "meta_ra_of_asc_node": 56.1203,
        "meta_arg_of_pericenter": 143.0234,
        "meta_mean_anomaly": 218.8382,
        "meta_ephemeris_type": 0,
        "meta_classification_type": "U",
        "meta_norad_cat_id": 35824,
        "meta_element_set_no": 999,
        "meta_rev_at_epoch": 84168,
        "meta_bstar": 0.0020429183,
        "meta_mean_motion_dot": 3.116e-05,
        "meta_mean_motion_ddot": 0,
        "tle_line1": "1 35824U 93036ASW 25342.47536062  .00003116  00000+0  20429-2 0  9991",
        "tle_line2": "2 35824  73.8458  56.1203 0249445 143.0234 218.8382 13.88395800841685"
      },
      "geometry": {
        "type": "Point",
        "coordinates": [
          110.8819851073832,
          70.93870182814737
        ]
      }
    },
    {
      "type": "Feature",
      "properties": {
        "norad_id": 35825,
        "name": "COSMOS 2251 DEB",
        "group": "cosmos-2251-debris",
        "lat": -68.24985496014467,
        "lon": 101.94243380981678,
        "alt_km": 803.2916827853514,
        "timestamp": "2025-12-09T18:55:17.628432+00:00",
        "meta_object_name": "COSMOS 2251 DEB",
        "meta_object_id": "1993-036ASX",
        "meta_epoch": "2025-12-06T17:43:31.257408",
        "meta_mean_motion": 13.70908059,
        "meta_eccentricity": 0.03529553,
        "meta_inclination": 74.1125,
        "meta_ra_of_asc_node": 152.5025,
        "meta_arg_of_pericenter": 249.6557,
        "meta_mean_anomaly": 106.6316,
        "meta_ephemeris_type": 0,
        "meta_classification_type": "U",
        "meta_norad_cat_id": 35825,
        "meta_element_set_no": 999,
        "meta_rev_at_epoch": 82426,
        "meta_bstar": 0.0026115912,
        "meta_mean_motion_dot": 3.599e-05,
        "meta_mean_motion_ddot": 0,
        "tle_line1": "1 35825U 93036ASX 25340.73855622  .00003599  00000+0  26116-2 0  9999",
        "tle_line2": "2 35825  74.1125 152.5025 0352955 249.6557 106.6316 13.70908059824269"
      },
      "geometry": {
        "type": "Point",
        "coordinates": [
          101.94243380981678,
          -68.24985496014467
        ]
      }
    },
    {
      "type": "Feature",
      "properties": {
        "norad_id": 35829,
        "name": "COSMOS 2251 DEB",
        "group": "cosmos-2251-debris",
        "lat": 48.84073899312646,
        "lon": -94.53803357988369,
        "alt_km": 633.533669502759,
        "timestamp": "2025-12-09T18:55:17.628442+00:00",
        "meta_object_name": "COSMOS 2251 DEB",
        "meta_object_id": "1993-036ATB",
        "meta_epoch": "2025-12-08T14:41:25.732032",
        "meta_mean_motion": 14.76103447,
        "meta_eccentricity": 0.0006283,
        "meta_inclination": 74.0249,
        "meta_ra_of_asc_node": 106.8945,
        "meta_arg_of_pericenter": 174.4564,
        "meta_mean_anomaly": 185.6681,
        "meta_ephemeris_type": 0,
        "meta_classification_type": "U",
        "meta_norad_cat_id": 35829,
        "meta_element_set_no": 999,
        "meta_rev_at_epoch": 87714,
        "meta_bstar": 0.0032694,
        "meta_mean_motion_dot": 0.0002262,
        "meta_mean_motion_ddot": 0,
        "tle_line1": "1 35829U 93036ATB 25342.61210338  .00022620  00000+0  32694-2 0  9995",
        "tle_line2": "2 35829  74.0249 106.8945 0006283 174.4564 185.6681 14.76103447877147"
      },
      "geometry": {
        "type": "Point",
        "coordinates": [
          -94.53803357988369,
          48.84073899312646
        ]
      }
    },
    {
      "type": "Feature",
      "properties": {
        "norad_id": 35830,
        "name": "COSMOS 2251 DEB",
        "group": "cosmos-2251-debris",
        "lat": -73.41646847118133,
        "lon": 168.27419080400404,
        "alt_km": 739.2821599312492,
        "timestamp": "2025-12-09T18:55:17.628452+00:00",
        "meta_object_name": "COSMOS 2251 DEB",
        "meta_object_id": "1993-036ATC",
        "meta_epoch": "2025-12-06T12:06:38.215008",
        "meta_mean_motion": 14.23927917,
        "meta_eccentricity": 0.01224789,
        "meta_inclination": 73.8624,
        "meta_ra_of_asc_node": 277.7805,
        "meta_arg_of_pericenter": 247.2482,
        "meta_mean_anomaly": 111.5683,
        "meta_ephemeris_type": 0,
        "meta_classification_type": "U",
        "meta_norad_cat_id": 35830,
        "meta_element_set_no": 999,
        "meta_rev_at_epoch": 61175,
        "meta_bstar": 0.0019622096,
        "meta_mean_motion_dot": 4.837e-05,
        "meta_mean_motion_ddot": 0,
        "tle_line1": "1 35830U 93036ATC 25340.50460897  .00004837  00000+0  19622-2 0  9996",
        "tle_line2": "2 35830  73.8624 277.7805 0122478 247.2482 111.5683 14.23927917611750"
      },
      "geometry": {
        "type": "Point",
        "coordinates": [
          168.27419080400404,
          -73.41646847118133
        ]
      }
    },
    {
      "type": "Feature",
      "properties": {
        "norad_id": 35834,
        "name": "COSMOS 2251 DEB",
        "group": "cosmos-2251-debris",
        "lat": -40.0561898614291,
        "lon": 143.81783606008804,
        "alt_km": 883.2095237992735,
        "timestamp": "2025-12-09T18:55:17.628462+00:00",
        "meta_object_name": "COSMOS 2251 DEB",
        "meta_object_id": "1993-036ATG",
        "meta_epoch": "2025-12-08T21:38:02.541120",
        "meta_mean_motion": 14.129731,
        "meta_eccentricity": 0.0109189,
        "meta_inclination": 73.9309,
        "meta_ra_of_asc_node": 311.3711,
        "meta_arg_of_pericenter": 112.4606,
        "meta_mean_anomaly": 278.2822,
        "meta_ephemeris_type": 0,
        "meta_classification_type": "U",
        "meta_norad_cat_id": 35834,
        "meta_element_set_no": 999,
        "meta_rev_at_epoch": 66209,
        "meta_bstar": 0.00032999,
        "meta_mean_motion_dot": 6.26e-06,
        "meta_mean_motion_ddot": 0,
        "tle_line1": "1 35834U 93036ATG 25342.90141830  .00000626  00000+0  32999-3 0  9994",
        "tle_line2": "2 35834  73.9309 311.3711 0109189 112.4606 278.2822 14.12973100662093"
      },
      "geometry": {
        "type": "Point",
        "coordinates": [
          143.81783606008804,
          -40.0561898614291
        ]
      }
    }
  ]
}